STARLINK-37578          
1 69451U 26127J   26178.30798378  .00221732  00000+0  14092-2 0  9996
2 69451  53.1576 211.8493 0001084  80.0091 280.1052 15.75301816  3001
STARLINK-37577          
1 69452U 26127K   26178.25002315 -.00087950  00000+0 -57463-3 0  9994
2 69452  53.1594 211.9790 0000880  92.6644  15.8184 15.75275607  4265
STARLINK-37500          
1 69453U 26127L   26178.30376949  .00175179  00000+0  11206-2 0  9991
2 69453  53.1579 211.8212 0002131 150.9598 209.1541 15.75296720  3009
STARLINK-37575          
1 69454U 26127M   26178.25002315 -.00036091  00000+0 -23196-3 0  9992
2 69454  53.1596 211.9298 0001234  93.4135  38.9439 15.75268225  4267
STARLINK-37642          
1 69455U 26127N   26178.30831170  .00175855  00000+0  11262-2 0  9998
2 69455  53.1575 211.8503 0001025  98.3863 261.7274 15.75268818  3005
STARLINK-37513          
1 69456U 26127P   26178.27757966  .00146434  00000+0  73134-3 0  9993
2 69456  53.1571 211.6444 0001508  74.7308 285.3881 15.80919991  3009
STARLINK-37563          
1 69457U 26127Q   26178.29469431  .00118969  00000+0  76832-3 0  9993
2 69457  53.1594 211.7592 0000968 100.4991 259.6139 15.75270960  3004
STARLINK-37565          
1 69458U 26127R   26178.25002315 -.00050324  00000+0 -32579-3 0  9996
2 69458  53.1590 211.8713 0001119  96.4394  63.5563 15.75257906  4264
STARLINK-37498          
1 69459U 26127S   26178.30344313  .00133544  00000+0  86042-3 0  9998
2 69459  53.1575 211.8160 0001198 110.3188 249.7961 15.75271767  3000
STARLINK-37384          
1 69460U 26127T   26178.28982676  .00120368  00000+0  77739-3 0  9990
2 69460  53.1595 211.7258 0001285 112.2422 247.8734 15.75264607  3002
STARLINK-37707          
1 69461U 26127U   26178.28561685  .00134581  00000+0  86678-3 0  9998
2 69461  53.1593 211.6968 0001116  93.2535 266.8614 15.75276709  3008
STARLINK-37525          
1 69462U 26127V   26178.25002315 -.00059130  00000+0 -38392-3 0  9994
2 69462  53.1591 211.8178 0001158  92.9653  92.7882 15.75258931  4264
STARLINK-37526          
1 69463U 26127W   26178.25002315 -.00043029  00000+0 -27776-3 0  9999
2 69463  53.1585 211.7688 0001052  79.3765 130.2668 15.75254759  4263
STARLINK-37574          
1 69464U 26127X   26178.28107815  .00122015  00000+0  78761-3 0  9995
2 69464  53.1590 211.6654 0001335 104.3894 255.7275 15.75270374  3007
STARLINK-37535          
1 69465U 26127Y   26178.25002315 -.00073768  00000+0 -48055-3 0  9997
2 69465  53.1583 211.7642 0001088  84.5464 126.9583 15.75271859  4264
STARLINK-37583          
1 69466U 26127Z   26178.25149625  .00225730  00000+0  11151-2 0  9996
2 69466  53.1576 211.4666 0003874  56.0238 304.1152 15.80915798  3004
STARLINK-37546          
1 69467U 26127AA  26178.27199829  .00136515  00000+0  87870-3 0  9994
2 69467  53.1579 211.6024 0001235 118.0588 242.0558 15.75283659  3002
STARLINK-37532          
1 69468U 26127AB  26178.25033578  .00205957  00000+0  10188-2 0  9995
2 69468  53.1573 211.4584 0001311 123.9132 236.2015 15.80947973  3006
STARLINK-37708          
1 69469U 26127AC  26178.27166999  .00131975  00000+0  85007-3 0  9993
2 69469  53.1578 211.5991 0001188 105.2555 254.8596 15.75283865  3006
STARLINK-37686          
1 69470U 26127AD  26178.26746032  .00098519  00000+0  63850-3 0  9994
2 69470  53.1584 211.5716 0001115  97.4181 262.6966 15.75270909  3000
STARLINK-37451          
1 69471U 26127AE  26178.30815791  .00209874  00000+0  10373-2 0  9998
2 69471  53.1578 211.1050 0001453 141.9143 218.1982 15.80953873  3018
DTC TEST OBJECT A       
1 69472U 26128A   26177.93193617  .00025739  00000+0  36493-3 0  9992
2 69472  54.9934 259.9957 0009723 323.9029  36.1349 15.56302358  2746
DTC TEST OBJECT B       
1 69473U 26128B   26177.92713015  .00020417  00000+0  28535-3 0  9998
2 69473  55.0021 259.9827 0009829 323.7849  36.2521 15.56840847  2739
TJS-25                  
1 69474U 26129A   26177.90326617 -.00000357  00000+0  00000+0 0  9991
2 69474   5.9742 330.2697 0002243 302.1022  88.0784  1.00273795   166
STARLINK-37816          
1 69478U 26131A   26178.25002315 -.00390336  00000+0 -21075-2 0  9991
2 69478  97.2827 199.1116 0000898  90.9500 249.7075 15.81043344  3625
STARLINK-37878          
1 69479U 26131B   26178.00585185  .00384895  00000+0  19077-2 0  9996
2 69479  97.2827 198.8392 0000926 119.7707 240.3653 15.80988795  3715
STARLINK-37817          
1 69480U 26131C   26178.25002315  .00082255  00000+0  42694-3 0  9991
2 69480  97.2832 199.1160 0000921  90.3891 258.8496 15.80774833  3628
STARLINK-37727          
1 69481U 26131D   26178.25002315  .00003587  00000+0  19457-4 0  9995
2 69481  97.2833 199.1172 0001486 101.8288 251.6699 15.80819041  3625
STARLINK-37814          
1 69482U 26131E   26178.25002315  .00011770  00000+0  62116-4 0  9999
2 69482  97.2833 199.1191 0000823 120.3059 237.4688 15.80811745  3626
STARLINK-37869          
1 69483U 26131F   26178.25002315 -.00007755  00000+0 -39777-4 0  9997
2 69483  97.2834 199.1208 0000725 127.0279 235.0208 15.80819785  3620
