OBJECT_NAME,OBJECT_ID,EPOCH,MEAN_MOTION,ECCENTRICITY,INCLINATION,RA_OF_ASC_NODE,ARG_OF_PERICENTER,MEAN_ANOMALY,EPHEMERIS_TYPE,CLASSIFICATION_TYPE,NORAD_CAT_ID,ELEMENT_SET_NO,REV_AT_EPOCH,BSTAR,MEAN_MOTION_DOT,MEAN_MOTION_DDOT
STARLINK-37578,2026-127J,2026-06-27T07:23:29.798592,15.75301816,.00010846,53.1576,211.8493,80.0091,280.1052,0,U,69451,999,300,.14091651E-2,.221732E-2,0
STARLINK-37577,2026-127K,2026-06-27T06:00:02.000160,15.75275607,.00008802,53.1594,211.9790,92.6644,15.8184,0,U,69452,999,426,-.57463072E-3,-.8795E-3,0
STARLINK-37500,2026-127L,2026-06-27T07:17:25.683936,15.75296720,.00021312,53.1579,211.8212,150.9598,209.1541,0,U,69453,999,300,.11205686E-2,.175179E-2,0
STARLINK-37575,2026-127M,2026-06-27T06:00:02.000160,15.75268225,.00012346,53.1596,211.9298,93.4135,38.9439,0,U,69454,999,426,-.23196487E-3,-.36091E-3,0
STARLINK-37642,2026-127N,2026-06-27T07:23:58.130880,15.75268818,.00010252,53.1575,211.8503,98.3863,261.7274,0,U,69455,999,300,.11261915E-2,.175855E-2,0
STARLINK-37513,2026-127P,2026-06-27T06:39:42.882624,15.80919991,.00015086,53.1571,211.6444,74.7308,285.3881,0,U,69456,999,300,.73133834E-3,.146434E-2,0
STARLINK-37563,2026-127Q,2026-06-27T07:04:21.588384,15.75270960,.00009685,53.1594,211.7592,100.4991,259.6139,0,U,69457,999,300,.76831798E-3,.118969E-2,0
STARLINK-37565,2026-127R,2026-06-27T06:00:02.000160,15.75257906,.00011194,53.1590,211.8713,96.4394,63.5563,0,U,69458,999,426,-.32579211E-3,-.50324E-3,0
STARLINK-37498,2026-127S,2026-06-27T07:16:57.486432,15.75271767,.00011983,53.1575,211.8160,110.3188,249.7961,0,U,69459,999,300,.86041586E-3,.133544E-2,0
STARLINK-37384,2026-127T,2026-06-27T06:57:21.032064,15.75264607,.00012851,53.1595,211.7258,112.2422,247.8734,0,U,69460,999,300,.77738906E-3,.120368E-2,0
STARLINK-37707,2026-127U,2026-06-27T06:51:17.295840,15.75276709,.00011168,53.1593,211.6968,93.2535,266.8614,0,U,69461,999,300,.86677514E-3,.134581E-2,0
STARLINK-37525,2026-127V,2026-06-27T06:00:02.000160,15.75258931,.00011588,53.1591,211.8178,92.9653,92.7882,0,U,69462,999,426,-.38391635E-3,-.5913E-3,0
STARLINK-37526,2026-127W,2026-06-27T06:00:02.000160,15.75254759,.00010524,53.1585,211.7688,79.3765,130.2668,0,U,69463,999,426,-.27775959E-3,-.43029E-3,0
STARLINK-37574,2026-127X,2026-06-27T06:44:45.152160,15.75270374,.00013357,53.1590,211.6654,104.3894,255.7275,0,U,69464,999,300,.78761425E-3,.122015E-2,0
STARLINK-37535,2026-127Y,2026-06-27T06:00:02.000160,15.75271859,.00010889,53.1583,211.7642,84.5464,126.9583,0,U,69465,999,426,-.48055334E-3,-.73768E-3,0
STARLINK-37583,2026-127Z,2026-06-27T06:02:09.276000,15.80915798,.00038744,53.1576,211.4666,56.0238,304.1152,0,U,69466,999,300,.11150768E-2,.22573E-2,0
STARLINK-37546,2026-127AA,2026-06-27T06:31:40.652256,15.75283659,.00012357,53.1579,211.6024,118.0588,242.0558,0,U,69467,999,300,.87870273E-3,.136515E-2,0
STARLINK-37532,2026-127AB,2026-06-27T06:00:29.011392,15.80947973,.00013116,53.1573,211.4584,123.9132,236.2015,0,U,69468,999,300,.10187947E-2,.205957E-2,0
STARLINK-37708,2026-127AC,2026-06-27T06:31:12.287136,15.75283865,.00011888,53.1578,211.5991,105.2555,254.8596,0,U,69469,999,300,.85006625E-3,.131975E-2,0
STARLINK-37686,2026-127AD,2026-06-27T06:25:08.571648,15.75270909,.00011153,53.1584,211.5716,97.4181,262.6966,0,U,69470,999,300,.63850484E-3,.98519E-3,0
STARLINK-37451,2026-127AE,2026-06-27T07:23:44.843424,15.80953873,.00014534,53.1578,211.1050,141.9143,218.1982,0,U,69471,999,301,.10373489E-2,.209874E-2,0
DTC TEST OBJECT A,2026-128A,2026-06-26T22:21:59.285088,15.56302358,.0009723,54.9934,259.9957,323.9029,36.1349,0,U,69472,999,274,.36493E-3,.25739E-3,0
DTC TEST OBJECT B,2026-128B,2026-06-26T22:15:04.044960,15.56840847,.0009829,55.0021,259.9827,323.7849,36.2521,0,U,69473,999,273,.28535E-3,.20417E-3,0
TJS-25,2026-129A,2026-06-26T21:40:42.197088,1.00273795,.0002243,5.9742,330.2697,302.1022,88.0784,0,U,69474,999,16,0,-.357E-5,0
STARLINK-37816,2026-131A,2026-06-27T06:00:02.000160,15.81043344,.00008987,97.2827,199.1116,90.9500,249.7075,0,U,69478,999,362,-.21074956E-2,-.390336E-2,0
STARLINK-37878,2026-131B,2026-06-27T00:08:25.599840,15.80988795,.00009261,97.2827,198.8392,119.7707,240.3653,0,U,69479,999,371,.19076636E-2,.384895E-2,0
STARLINK-37817,2026-131C,2026-06-27T06:00:02.000160,15.80774833,.00009215,97.2832,199.1160,90.3891,258.8496,0,U,69480,999,362,.42693884E-3,.82255E-3,0
STARLINK-37727,2026-131D,2026-06-27T06:00:02.000160,15.80819041,.00014862,97.2833,199.1172,101.8288,251.6699,0,U,69481,999,362,.19457492E-4,.3587E-4,0
STARLINK-37814,2026-131E,2026-06-27T06:00:02.000160,15.80811745,.00008235,97.2833,199.1191,120.3059,237.4688,0,U,69482,999,362,.621163E-4,.1177E-3,0
STARLINK-37869,2026-131F,2026-06-27T06:00:02.000160,15.80819785,.00007256,97.2834,199.1208,127.0279,235.0208,0,U,69483,999,362,-.39776809E-4,-.7755E-4,0
